CAS-2T & KS-1Q          
1 41847U 16066G   20168.85854458  .00000080  00000-0  23097-4 0  9990
2 41847  98.6537 219.3693 0364776 230.5966 126.2396 14.38070943189333
NAYIF-1 (EO-88)         
1 42017U 17008BX  20168.89361531  .00001086  00000-0  44364-4 0  9993
2 42017  97.3597 236.4640 0005327 339.5979  20.5046 15.26501687185465
MAX VALIER SAT          
1 42778U 17036P   20169.07944540  .00000690  00000-0  32554-4 0  9994
2 42778  97.3047 222.7258 0012978  31.4983 328.7029 15.22623659165670
RADFXSAT (FOX-1B)       
1 43017U 17073E   20168.84854275  .00000598  00000-0  51240-4 0  9991
2 43017  97.7234  81.1074 0258293  52.5395 309.9009 14.78938116139076
FOX-1D (AO-92)          
1 43137U 18004AC  20169.15587465  .00000710  00000-0  32137-4 0  9998
2 43137  97.4456 240.3189 0010637  62.3939 297.8377 15.24126480134993
DIWATA-2B               
1 43678U 18084H   20169.07176220 -.00000343  00000-0 -28439-4 0  9994
2 43678  97.8842 287.4749 0010063 170.4171 189.7247 14.91630286 88969
ES'HAIL 2               
1 43700U 18090A   20168.91889769  .00000155  00000-0  00000-0 0  9997
2 43700   0.0128 318.4901 0001249 158.0472 145.7041  1.00274360  5703
FOX-1CLIFF (AO-95)      
1 43770U 18099N   20169.17389938 -.00000150  00000-0 -84215-5 0  9997
2 43770  97.7057 240.5595 0014206 192.2414 167.8463 14.94991755 83879
ITASAT 1                
1 43786U 18099AE  20168.76938993 -.00000037  00000-0  18730-5 0  9991
2 43786  97.7073 240.5811 0014951 187.2314 172.8693 14.95331618 83839
JY1SAT (JO-97)          
1 43803U 18099AX  20168.65018482 -.00000181  00000-0 -11088-4 0  9990
2 43803  97.7032 240.2830 0014950 188.4014 171.6959 14.95505843 83814
PSAT2 (NO-104)          
1 44354U 19036R   20168.92469809  .00004473  00000-0  61348-4 0  9997
2 44354  28.5339  24.0710 0364238 305.4123  51.2965 15.03462047 53749
BRICSAT2 (NO-103)       
1 44355U 19036S   20168.86854060  .00009519  00000-0  13025-3 0  9992
2 44355  28.5335  15.7995 0343237 318.8763  38.6430 15.08786538 53815
JAISAT-1                
1 44419U 19038F   20168.89386156  .00000610  00000-0  38336-4 0  9990
2 44419  97.5384 130.4958 0022820 129.6509 230.6740 15.12781544 52519
DUCHIFAT-3              
1 44854U 19089C   20169.16144551  .00000244  00000-0  26201-4 0  9992
2 44854  36.9658 100.0759 0007508  53.7984 306.3455 14.99068932 28256
RS-44 & BREEZE-KM R/B   
1 44909U 19096E   20168.88914093  .00000036  00000-0  10382-3 0  9996
2 44909  82.5212 355.6894 0216571 227.6451 130.6134 12.79707918 22112
ORBITAL FACTORY 2 (OF-2)
1 45113U 19071C   20168.83239804  .00001394  00000-0  54126-4 0  9995
2 45113  51.6454   6.5489 0013559  57.2744 302.9543 15.33354768 21032
HUSKYSAT-1              
1 45119U 19071J   20168.87605023  .00001242  00000-0  49180-4 0  9991
2 45119  51.6448   6.0913 0012811  54.0635 306.1533 15.33571871 21033
